DMSP 5D-3 F16 (USA 172) 
1 28054U 03048A   26198.60021831 -.00000055  00000+0 -48690-5 0  9994
2 28054  98.9897 222.6287 0008054  65.2288  92.2504 14.14484758173782
METEOSAT-9 (MSG-2)      
1 28912U 05049B   26198.20569359  .00000111  00000+0  00000+0 0  9996
2 28912   9.4277  53.8679 0002295 356.6665   4.2059  1.00273115  7306
DMSP 5D-3 F17 (USA 191) 
1 29522U 06050A   26198.57550657 -.00000039  00000+0  24219-5 0  9992
2 29522  98.7388 204.5249 0009589 335.8329  24.2394 14.14996190 16729
FENGYUN 3A              
1 32958U 08026A   26198.28470018  .00000021  00000+0  30477-4 0  9996
2 32958  98.6886 138.5558 0009599  46.5170 313.6803 14.19576723939677
EWS-G3 (GOES 14)        
1 35491U 09033A   26198.64878718 -.00000369  00000+0  00000+0 0  9999
2 35491   1.7665  82.6632 0002014  39.9059 169.9914  1.00097014  6892
DMSP 5D-3 F18 (USA 210) 
1 35951U 09057A   26198.61950428  .00000160  00000+0  10591-3 0  9990
2 35951  98.9058 179.3257 0011375 158.7640 201.4007 14.14912689863899
EWS-G2 (GOES 15)        
1 36411U 10008A   26198.66391242  .00000013  00000+0  00000+0 0  9995
2 36411   1.3597  82.4311 0005330  54.3620 100.9749  1.00268908 59943
COMS 1                  
1 36744U 10032A   26198.47248729 -.00000240  00000+0  00000+0 0  9994
2 36744   4.8812  74.9910 0011288  15.0272 328.3763  0.99167397 51386
FENGYUN 3B              
1 37214U 10059A   26198.59127858  .00000201  00000+0  12735-3 0  9996
2 37214  98.9599 244.7323 0023175 100.0291  62.8422 14.14847475811722
SUOMI NPP               
1 37849U 11061A   26198.64949089  .00000022  00000+0  31459-4 0  9994
2 37849  98.7955 139.3186 0000859 201.4895 158.6245 14.19522824762765
METEOSAT-10 (MSG-3)     
1 38552U 12035B   26198.33916918 -.00000019  00000+0  00000+0 0  9999
2 38552   4.7414  60.8716 0001248  16.5280 339.9011  1.00271443 51150
METOP-B                 
1 38771U 12049A   26198.59846385  .00000032  00000+0  34308-4 0  9992
2 38771  98.6488 249.4884 0001163 241.7808 118.3253 14.21446778717586
INSAT-3D                
1 39216U 13038B   26198.62062425 -.00000350  00000+0  00000+0 0  9996
2 39216   2.0028  82.1560 0000569  71.5604 134.6104  1.00267617 47381
FENGYUN 3C              
1 39260U 13052A   26198.57469424  .00000004  00000+0  23416-4 0  9991
2 39260  98.5001 171.0577 0013578 298.5824  61.3984 14.15761058662862
METEOR-M 2              
1 40069U 14037A   26198.62439078  .00000145  00000+0  85576-4 0  9993
2 40069  98.5134 173.2882 0005019 318.9474  41.1326 14.21469932623642
HIMAWARI-8              
1 40267U 14060A   26198.56364054 -.00000285  00000+0  00000+0 0  9993
2 40267   0.0161  32.4156 0001169 133.4055 113.1337  1.00270859 43062
FENGYUN 2G              
1 40367U 14090A   26198.57270749 -.00000313  00000+0  00000+0 0  9997
2 40367   5.7138  72.4472 0004130 173.7772 354.7261  1.00279937 42309
METEOSAT-11 (MSG-4)     
1 40732U 15034A   26198.62620752  .00000051  00000+0  00000+0 0  9999
2 40732   3.2748  70.9144 0002112 354.6343 104.5816  1.00272618  7527
ELEKTRO-L 2             
1 41105U 15074A   26198.40763157 -.00000130  00000+0  00000+0 0  9990
2 41105   6.7681  70.1492 0001011 216.2851 141.0386  1.00272043 38803
SENTINEL-3A             
1 41335U 16011A   26198.58278696  .00000043  00000+0  35856-4 0  9999
2 41335  98.6236 265.5276 0001339  89.5234 270.6100 14.26740189542393
INSAT-3DR               
1 41752U 16054A   26198.63894368 -.00000086  00000+0  00000+0 0  9991
2 41752   0.0761  88.8944 0010480 180.8812 329.6862  1.00271000 36126
HIMAWARI-9              
1 41836U 16064A   26198.56364054  .00000000  00000+0  00000+0 0  9996
2 41836   0.0066 334.9880 0002396 202.8792 101.1586  1.00266850 35515
GOES 16                 
1 41866U 16071A   26198.60358742 -.00000100  00000+0  00000+0 0  9991
2 41866   0.4103  85.4547 0000567  85.8970 236.6588  1.00271228 35406
FENGYUN 4A              
1 41882U 16077A   26198.64887384 -.00000367  00000+0  00000+0 0  9993
2 41882   2.3983  79.9379 0008429 159.6698  53.1597  1.00266821 35230
CYGFM05                 
1 41884U 16078A   26198.05206390  .00016094  00000+0  20855-3 0  9990
2 41884  34.9568  62.6339 0005617  56.6119 303.5143 15.57913672533419
CYGFM04                 
1 41885U 16078B   26198.62859989  .00020254  00000+0  21406-3 0  9998
2 41885  34.9327  24.9062 0004121 113.9819 246.1339 15.63182639533765
CYGFM02                 
1 41886U 16078C   26198.63180300  .00024203  00000+0  22396-3 0  9991
2 41886  34.9409  18.4838 0004886 116.5477 243.5752 15.66485620533942
CYGFM01                 
1 41887U 16078D   26198.02732790  .00016544  00000+0  20859-3 0  9992
2 41887  34.9398  63.6066 0005605  48.8240 311.2968 15.58633048533368
CYGFM08                 
1 41888U 16078E   26198.63684713  .00018421  00000+0  20751-3 0  9998
2 41888  34.9433  38.2998 0005985  95.9449 264.1959 15.61551092533735
CYGFM07                 
1 41890U 16078G   26198.65791556  .00018244  00000+0  20473-3 0  9991
2 41890  34.9451  26.4734 0004529 114.0070 246.1131 15.61660959533769
CYGFM03                 
1 41891U 16078H   26198.62913509  .00018576  00000+0  20857-3 0  9997
2 41891  34.9406  28.5945 0004323  94.5723 265.5497 15.61646449533731
